BEIDOU 3 (C01)          
1 36287U 10001A   20362.46178172 -.00000261  00000-0  00000-0 0  9997
2 36287   1.6337  38.4537 0003537 121.0306 243.5684  1.00270029 40141
BEIDOU 5 (C06)          
1 36828U 10036A   20362.25755670  .00000018  00000-0  00000-0 0  9996
2 36828  54.1666 181.1866 0100458 233.3960 252.3203  1.00255745 38188
BEIDOU 6 (C04)          
1 37210U 10057A   20362.60921074 -.00000092  00000-0  00000-0 0  9990
2 37210   0.8471  48.2335 0006599 187.5131 240.0906  1.00273740 37257
BEIDOU 7 (C07)          
1 37256U 10068A   20362.51213778 -.00000223  00000-0  00000-0 0  9993
2 37256  51.1592 296.0480 0079841 215.5854 245.2448  1.00249606 36776
BEIDOU 8 (C08)          
1 37384U 11013A   20360.59019110 -.00000209  00000-0  00000+0 0  9999
2 37384  59.5353  59.6616 0053128 206.0651 156.5368  1.00251863 35625
BEIDOU 9 (C09)          
1 37763U 11038A   20362.26293633  .00000039  00000-0  00000-0 0  9998
2 37763  54.4487 183.5987 0072639 223.0893 236.9440  1.00254654 34614
BEIDOU 10 (C10)         
1 37948U 11073A   20362.24660185 -.00000159  00000-0  00000-0 0  9994
2 37948  51.2611 295.6566 0070935 216.2378 126.8910  1.00291851 33360
BEIDOU 11 (C05)         
1 38091U 12008A   20362.58905920  .00000076  00000-0  00000-0 0  9996
2 38091   1.8900  71.0061 0003568 233.0117  63.3136  1.00269401 32443
BEIDOU 12 (C11)         
1 38250U 12018A   20362.45800403 -.00000069  00000-0  00000-0 0  9993
2 38250  56.7539  11.2930 0024902 247.1270 291.5480  1.86234227 59087
BEIDOU 13 (C12)         
1 38251U 12018B   20362.39632774 -.00000069  00000-0  00000-0 0  9991
2 38251  56.6775  10.6533 0015886 249.8007 291.9929  1.86232766 59087
BEIDOU 15 (C14)         
1 38775U 12050B   20362.52716215  .00000009  00000-0  00000-0 0  9999
2 38775  55.1339 129.7816 0012383 323.4368 143.4126  1.86232219 56464
BEIDOU 16 (C02)         
1 38953U 12059A   20362.60694578 -.00000155  00000-0  00000-0 0  9995
2 38953   1.5606  84.7068 0008779 255.9135  58.4469  1.00269895 30012
BEIDOU 17 (C31)         
1 40549U 15019A   20362.37959723 -.00000161  00000-0  00000-0 0  9995
2 40549  52.7649 318.9769 0037181 189.8017 174.6083  1.00303238 21051
BEIDOU 18 (C57)         
1 40748U 15037A   20362.44343181 -.00000071  00000-0  00000-0 0  9999
2 40748  55.9430   9.8434 0003702 315.4348 168.0283  1.86233373 36912
BEIDOU 19 (C58)         
1 40749U 15037B   20362.35479413 -.00000072  00000-0  00000-0 0  9999
2 40749  55.9469   9.8354 0006683 291.6849 269.1962  1.86232080 36908
BEIDOU 20 (C18)         
1 40938U 15053A   20362.24488542 -.00000144  00000-0  00000-0 0  9998
2 40938  52.3307 282.0315 0046731 192.2202 166.6894  1.00275264 19328
BEIDOU IGSO-6 (C13)     
1 41434U 16021A   20362.54356926 -.00000152  00000-0  00000-0 0  9998
2 41434  57.3121  58.4630 0043104 208.8236 118.5272  1.00261895 17448
BEIDOU-2 G7 (C03)       
1 41586U 16037A   20362.45576243 -.00000335  00000-0  00000-0 0  9992
2 41586   1.8928  68.9476 0008190 356.0505 305.9749  1.00269257 16754
BEIDOU-3 M1 (C19)       
1 43001U 17069A   20362.00765640  .00000010  00000-0  00000-0 0  9993
2 43001  55.2889 129.7281 0007467 285.9513 349.0709  1.86231654 21386
BEIDOU-3 M2 (C20)       
1 43002U 17069B   20362.47863709  .00000009  00000-0  00000-0 0  9998
2 43002  55.2883 129.7472 0006267 316.0793 318.3705  1.86231395 21383
BEIDOU-3 M3 (C27)       
1 43107U 18003A   20362.51237065 -.00000072  00000-0  00000-0 0  9999
2 43107  55.3819  10.9987 0003224  28.2099  74.7277  1.86232451 20157
BEIDOU-3 M4 (C28)       
1 43108U 18003B   20362.47253251 -.00000073  00000-0  00000-0 0  9991
2 43108  55.3759  10.9912 0004700 247.4168 233.9932  1.86232523 20158
BEIDOU-3 M5 (C21)       
1 43207U 18018A   20361.66491302  .00000011  00000-0  00000-0 0  9999
2 43207  55.2483 129.8721 0004546 345.7343  14.2142  1.86231642 19527
BEIDOU-3 M6 (C22)       
1 43208U 18018B   20362.26861776  .00000009  00000-0  00000-0 0  9990
2 43208  55.2480 129.8568 0006060 299.4081  60.4912  1.86231743 19532
BEIDOU-3 M7 (C29)       
1 43245U 18029A   20362.22169988 -.00000074  00000-0  00000-0 0  9998
2 43245  55.3218   8.8097 0001729 265.8632 272.3030  1.86232577 18688
BEIDOU-3 M8 (C30)       
1 43246U 18029B   20362.41854865 -.00000073  00000-0  10000-3 0  9998
2 43246  55.3178   8.8336 0004471 324.6341  31.5606  1.86232818 18679
BEIDOU IGSO-7 (C16)     
1 43539U 18057A   20361.91422666 -.00000028  00000-0  00000-0 0  9994
2 43539  55.0486 180.5086 0030917 212.0002 147.3408  1.00266173  9113
BEIDOU-3 M9 (C23)       
1 43581U 18062A   20362.47500616  .00000042  00000-0  00000-0 0  9996
2 43581  54.4751 250.5046 0003953 297.8117 305.9216  1.86231775 16425
BEIDOU-3 M10 (C24)      
1 43582U 18062B   20362.34871584  .00000041  00000-0  00000-0 0  9997
2 43582  54.4743 250.4973 0006378 357.1511 253.0888  1.86232283 16420
BEIDOU-3 M11 (C25)      
1 43602U 18067A   20362.35345030  .00000044  00000-0  00000-0 0  9991
2 43602  54.5480 249.0658 0007459 356.6145 299.3331  1.86231461 15910
BEIDOU-3 M12 (C26)      
1 43603U 18067B   20362.22180218  .00000043  00000-0  00000-0 0  9992
2 43603  54.5455 249.0388 0004799 349.0866 129.0930  1.86231397 15937
BEIDOU-3 M13 (C32)      
1 43622U 18072A   20362.55972031  .00000008  00000-0  00000-0 0  9998
2 43622  55.2122 129.4160 0004299 278.3675  96.7722  1.86231557 15457
BEIDOU-3 M14 (C33)      
1 43623U 18072B   20362.49733760  .00000008  00000-0  00000-0 0  9996
2 43623  55.2136 129.4098 0002810 324.9208  98.6282  1.86231542 15456
BEIDOU-3 M15 (C34)      
1 43647U 18078A   20362.28878446 -.00000074  00000-0  10000-3 0  9994
2 43647  55.2142   9.0103 0006797 336.6480 202.2290  1.86232971 14952
BEIDOU-3 M16 (C35)      
1 43648U 18078B   20362.42252547 -.00000073  00000-0  10000-3 0  9998
2 43648  55.2102   9.0135 0004515 339.4324 197.8657  1.86232536 14973
BEIDOU-3 G1 (C59)       
1 43683U 18085A   20362.60674215 -.00000254  00000-0  00000-0 0  9992
2 43683   1.3635 244.1879 0004353   6.1321 204.7080  1.00274205  8030
BEIDOU-3 M17 (C36)      
1 43706U 18093A   20362.14776389  .00000039  00000-0  00000-0 0  9991
2 43706  54.5560 250.3620 0009338 277.9091 331.3886  1.86231834 14310
BEIDOU-3 M18 (C37)      
1 43707U 18093B   20362.32684132  .00000041  00000-0  00000-0 0  9999
2 43707  54.5556 250.3447 0008734 302.7522 157.3033  1.86232073 14325
BEIDOU-3 IGSO-1 (C38)   
1 44204U 19023A   20362.40583097 -.00000220  00000-0  00000-0 0  9993
2 44204  55.7730  58.8005 0018158 199.0053  97.6166  1.00291235  6328
BEIDOU-2 G8             
1 44231U 19027A   20362.49761389 -.00000225  00000-0  00000-0 0  9993
2 44231   0.5572 307.7178 0008013 276.6510 195.7747  1.00269710  6054
BEIDOU-3 IGSO-2 (C39)   
1 44337U 19035A   20361.79798654 -.00000020  00000-0  00000+0 0  9998
2 44337  55.0831 176.5548 0016508 183.6729 129.9419  1.00282775  5650
BEIDOU-3 M23 (C45)      
1 44542U 19061A   20362.14920367  .00000039  00000-0  10000-3 0  9997
2 44542  54.7790 250.3968 0009083 335.0990 319.4570  1.86231707  8579
BEIDOU-3 M24 (C46)      
1 44543U 19061B   20362.21578640  .00000040  00000-0  10000-3 0  9991
2 44543  54.7771 250.3645 0006388 329.1492 280.6732  1.86231967  8585
BEIDOU-3 IGSO-3         
1 44709U 19073A   20362.01010282 -.00000193  00000-0  00000-0 0  9995
2 44709  58.1108 301.9277 0020039 197.4756  68.3262  1.00275399  4413
BEIDOU-3 M21            
1 44793U 19078A   20360.74896084 -.00000079  00000-0  10000-3 0  9990
2 44793  55.0606   9.1499 0006512 343.4354 197.7235  1.86232681  7416
BEIDOU-3 M22            
1 44794U 19078B   20362.48969728 -.00000074  00000-0  10000-3 0  9995
2 44794  55.0368   9.0931 0004701 332.8005 206.0894  1.86233088  7445
BEIDOU-3 M19            
1 44864U 19090A   20362.46531936  .00000009  00000-0  00000-0 0  9994
2 44864  55.1478 129.6593 0014107 259.6692  97.5169  1.86231753  7027
BEIDOU-3 M20            
1 44865U 19090B   20362.45875603  .00000009  00000-0  00000-0 0  9996
2 44865  55.1496 129.6900 0012569 277.5210 165.1943  1.86231714  7013
BEIDOU-3 G2             
1 45344U 20017A   20362.44974315 -.00000119  00000-0  00000-0 0  9992
2 45344   2.6669 332.2215 0001249 315.6640  50.4622  1.00271978  3232
BEIDOU-3 G3             
1 45807U 20040A   20362.09686503 -.00000329  00000-0  00000-0 0  9995
2 45807   2.6804 298.3723 0009556  14.6545 288.4135  1.00268124  2041
